SL-4 R/B                
1 39679U 14021B   26011.91336529  .00011009  00000+0  25901-3 0  9990
2 39679  51.6074 253.8720 0099480 255.6532 103.3391 15.37473382647532
ALOS-2                  
1 39766U 14029A   26011.90730521  .00000750  00000+0  10732-3 0  9991
2 39766  97.9202 111.3216 0001464  96.9749 263.1629 14.79475733628472
YAOGAN-29               
1 41038U 15069A   26011.98157887  .00000652  00000+0  87087-4 0  9996
2 41038  98.0204  40.2473 0002178 131.3117 228.8284 14.82923353547477
ASTRO-H (HITOMI)        
1 41337U 16012A   26011.64546061  .00002940  00000+0  17275-3 0  9999
2 41337  31.0011   4.5450 0009611 120.6529 239.5057 15.09580438543608
HXMT (HUIYAN)           
1 42758U 17034A   26011.95794700  .00007076  00000+0  36154-3 0  9993
2 42758  43.0158 331.8919 0033365 237.2089 122.5543 15.16680256473921
CZ-2C R/B               
1 43521U 18054D   26011.22215952  .00210650  00000+0  96679-3 0  9994
2 43521  35.1341 339.9118 0010325  90.1954 269.9965 15.82000575419718
H-2A R/B                
1 43682U 18084L   26011.55524158  .00020015  00000+0  51959-3 0  9998
2 43682  98.8770 216.8459 0025804 221.0306 138.8994 15.38698689396982
SAOCOM 1B               
1 46265U 20059A   26011.94780586  .00000933  00000+0  12371-3 0  9997
2 46265  97.8851 200.0301 0001342  86.1340 274.0027 14.82148615290341
CSS (TIANHE)            
1 48274U 21035A   26011.93536797  .00021250  00000+0  25390-3 0  9996
2 48274  41.4654 193.2137 0011506 267.3803  92.5718 15.60429921268747
CZ-2C R/B               
1 52794U 22058K   26011.92573407  .00027993  00000+0  47170-3 0  9992
2 52794  50.1900 249.4057 0043121 322.1487  37.6452 15.50371350201317
