CCSDS_OMM_VERS = 2.0
CREATION_DATE  = 
ORIGINATOR     = 

OBJECT_NAME    = SL-4 R/B
OBJECT_ID      = 2014-021B
CENTER_NAME    = EARTH
REF_FRAME      = TEME
TIME_SYSTEM    = UTC
MEAN_ELEMENT_THEORY = SGP/SGP4

EPOCH          = 2026-01-11T21:55:14.761056
MEAN_MOTION    = 15.37473382
ECCENTRICITY   = .00994801
INCLINATION    = 51.6074
RA_OF_ASC_NODE = 253.8720
ARG_OF_PERICENTER = 255.6532
MEAN_ANOMALY   = 103.3391

EPHEMERIS_TYPE = 0
CLASSIFICATION_TYPE = U
NORAD_CAT_ID   = 39679
ELEMENT_SET_NO = 999
REV_AT_EPOCH   = 64753
BSTAR          = .25901025E-3
MEAN_MOTION_DOT = .11009E-3
MEAN_MOTION_DDOT = 0

CCSDS_OMM_VERS = 2.0
CREATION_DATE  = 
ORIGINATOR     = 

OBJECT_NAME    = ALOS-2
OBJECT_ID      = 2014-029A
CENTER_NAME    = EARTH
REF_FRAME      = TEME
TIME_SYSTEM    = UTC
MEAN_ELEMENT_THEORY = SGP/SGP4

EPOCH          = 2026-01-11T21:46:31.170144
MEAN_MOTION    = 14.79475733
ECCENTRICITY   = .00014644
INCLINATION    = 97.9202
RA_OF_ASC_NODE = 111.3216
ARG_OF_PERICENTER = 96.9749
MEAN_ANOMALY   = 263.1629

EPHEMERIS_TYPE = 0
CLASSIFICATION_TYPE = U
NORAD_CAT_ID   = 39766
ELEMENT_SET_NO = 999
REV_AT_EPOCH   = 62847
BSTAR          = .10731657E-3
MEAN_MOTION_DOT = .75E-5
MEAN_MOTION_DDOT = 0

CCSDS_OMM_VERS = 2.0
CREATION_DATE  = 
ORIGINATOR     = 

OBJECT_NAME    = YAOGAN-29
OBJECT_ID      = 2015-069A
CENTER_NAME    = EARTH
REF_FRAME      = TEME
TIME_SYSTEM    = UTC
MEAN_ELEMENT_THEORY = SGP/SGP4

EPOCH          = 2026-01-11T23:33:28.414368
MEAN_MOTION    = 14.82923353
ECCENTRICITY   = .00021785
INCLINATION    = 98.0204
RA_OF_ASC_NODE = 40.2473
ARG_OF_PERICENTER = 131.3117
MEAN_ANOMALY   = 228.8284

EPHEMERIS_TYPE = 0
CLASSIFICATION_TYPE = U
NORAD_CAT_ID   = 41038
ELEMENT_SET_NO = 999
REV_AT_EPOCH   = 54747
BSTAR          = .87087469E-4
MEAN_MOTION_DOT = .652E-5
MEAN_MOTION_DDOT = 0

CCSDS_OMM_VERS = 2.0
CREATION_DATE  = 
ORIGINATOR     = 

OBJECT_NAME    = ASTRO-H (HITOMI)
OBJECT_ID      = 2016-012A
CENTER_NAME    = EARTH
REF_FRAME      = TEME
TIME_SYSTEM    = UTC
MEAN_ELEMENT_THEORY = SGP/SGP4

EPOCH          = 2026-01-11T15:29:27.796704
MEAN_MOTION    = 15.09580438
ECCENTRICITY   = .00096116
INCLINATION    = 31.0011
RA_OF_ASC_NODE = 4.5450
ARG_OF_PERICENTER = 120.6529
MEAN_ANOMALY   = 239.5057

EPHEMERIS_TYPE = 0
CLASSIFICATION_TYPE = U
NORAD_CAT_ID   = 41337
ELEMENT_SET_NO = 999
REV_AT_EPOCH   = 54360
BSTAR          = .17275143E-3
MEAN_MOTION_DOT = .294E-4
MEAN_MOTION_DDOT = 0

CCSDS_OMM_VERS = 2.0
CREATION_DATE  = 
ORIGINATOR     = 

OBJECT_NAME    = HXMT (HUIYAN)
OBJECT_ID      = 2017-034A
CENTER_NAME    = EARTH
REF_FRAME      = TEME
TIME_SYSTEM    = UTC
MEAN_ELEMENT_THEORY = SGP/SGP4

EPOCH          = 2026-01-11T22:59:26.620800
MEAN_MOTION    = 15.16680256
ECCENTRICITY   = .00333657
INCLINATION    = 43.0158
RA_OF_ASC_NODE = 331.8919
ARG_OF_PERICENTER = 237.2089
MEAN_ANOMALY   = 122.5543

EPHEMERIS_TYPE = 0
CLASSIFICATION_TYPE = U
NORAD_CAT_ID   = 42758
ELEMENT_SET_NO = 999
REV_AT_EPOCH   = 47392
BSTAR          = .36154006E-3
MEAN_MOTION_DOT = .7076E-4
MEAN_MOTION_DDOT = 0

CCSDS_OMM_VERS = 2.0
CREATION_DATE  = 
ORIGINATOR     = 

OBJECT_NAME    = CZ-2C R/B
OBJECT_ID      = 2018-054D
CENTER_NAME    = EARTH
REF_FRAME      = TEME
TIME_SYSTEM    = UTC
MEAN_ELEMENT_THEORY = SGP/SGP4

EPOCH          = 2026-01-11T05:19:54.582528
MEAN_MOTION    = 15.82000575
ECCENTRICITY   = .00103259
INCLINATION    = 35.1341
RA_OF_ASC_NODE = 339.9118
ARG_OF_PERICENTER = 90.1954
MEAN_ANOMALY   = 269.9965

EPHEMERIS_TYPE = 0
CLASSIFICATION_TYPE = U
NORAD_CAT_ID   = 43521
ELEMENT_SET_NO = 999
REV_AT_EPOCH   = 41971
BSTAR          = .96678737E-3
MEAN_MOTION_DOT = .21065E-2
MEAN_MOTION_DDOT = 0

CCSDS_OMM_VERS = 2.0
CREATION_DATE  = 
ORIGINATOR     = 

OBJECT_NAME    = H-2A R/B
OBJECT_ID      = 2018-084L
CENTER_NAME    = EARTH
REF_FRAME      = TEME
TIME_SYSTEM    = UTC
MEAN_ELEMENT_THEORY = SGP/SGP4

EPOCH          = 2026-01-11T13:19:32.872512
MEAN_MOTION    = 15.38698689
ECCENTRICITY   = .00258048
INCLINATION    = 98.8770
RA_OF_ASC_NODE = 216.8459
ARG_OF_PERICENTER = 221.0306
MEAN_ANOMALY   = 138.8994

EPHEMERIS_TYPE = 0
CLASSIFICATION_TYPE = U
NORAD_CAT_ID   = 43682
ELEMENT_SET_NO = 999
REV_AT_EPOCH   = 39698
BSTAR          = .51958648E-3
MEAN_MOTION_DOT = .20015E-3
MEAN_MOTION_DDOT = 0

CCSDS_OMM_VERS = 2.0
CREATION_DATE  = 
ORIGINATOR     = 

OBJECT_NAME    = SAOCOM 1B
OBJECT_ID      = 2020-059A
CENTER_NAME    = EARTH
REF_FRAME      = TEME
TIME_SYSTEM    = UTC
MEAN_ELEMENT_THEORY = SGP/SGP4

EPOCH          = 2026-01-11T22:44:50.426304
MEAN_MOTION    = 14.82148615
ECCENTRICITY   = .00013425
INCLINATION    = 97.8851
RA_OF_ASC_NODE = 200.0301
ARG_OF_PERICENTER = 86.1340
MEAN_ANOMALY   = 274.0027

EPHEMERIS_TYPE = 0
CLASSIFICATION_TYPE = U
NORAD_CAT_ID   = 46265
ELEMENT_SET_NO = 999
REV_AT_EPOCH   = 29034
BSTAR          = .12371348E-3
MEAN_MOTION_DOT = .933E-5
MEAN_MOTION_DDOT = 0

CCSDS_OMM_VERS = 2.0
CREATION_DATE  = 
ORIGINATOR     = 

OBJECT_NAME    = CSS (TIANHE)
OBJECT_ID      = 2021-035A
CENTER_NAME    = EARTH
REF_FRAME      = TEME
TIME_SYSTEM    = UTC
MEAN_ELEMENT_THEORY = SGP/SGP4

EPOCH          = 2026-01-11T22:26:55.792608
MEAN_MOTION    = 15.60429921
ECCENTRICITY   = .00115066
INCLINATION    = 41.4654
RA_OF_ASC_NODE = 193.2137
ARG_OF_PERICENTER = 267.3803
MEAN_ANOMALY   = 92.5718

EPHEMERIS_TYPE = 0
CLASSIFICATION_TYPE = U
NORAD_CAT_ID   = 48274
ELEMENT_SET_NO = 999
REV_AT_EPOCH   = 26874
BSTAR          = .25390226E-3
MEAN_MOTION_DOT = .2125E-3
MEAN_MOTION_DDOT = 0

CCSDS_OMM_VERS = 2.0
CREATION_DATE  = 
ORIGINATOR     = 

OBJECT_NAME    = CZ-2C R/B
OBJECT_ID      = 2022-058K
CENTER_NAME    = EARTH
REF_FRAME      = TEME
TIME_SYSTEM    = UTC
MEAN_ELEMENT_THEORY = SGP/SGP4

EPOCH          = 2026-01-11T22:13:03.423648
MEAN_MOTION    = 15.50371350
ECCENTRICITY   = .00431219
INCLINATION    = 50.1900
RA_OF_ASC_NODE = 249.4057
ARG_OF_PERICENTER = 322.1487
MEAN_ANOMALY   = 37.6452

EPHEMERIS_TYPE = 0
CLASSIFICATION_TYPE = U
NORAD_CAT_ID   = 52794
ELEMENT_SET_NO = 999
REV_AT_EPOCH   = 20131
BSTAR          = .47169854E-3
MEAN_MOTION_DOT = .27993E-3
MEAN_MOTION_DDOT = 0

